1 43013U 17073A   26002.85412090  .00000193  00000+0  11229-3 0  9998
2 43013  98.7623 303.9225 0001889  56.9749 303.1609 14.19532766421012
